#cP2019  6 21  0  0  0.00000000      96 ORBIT IGS14 HLM  IGS
## 2058 432000.00000000   900.00000000 58655 0.0000000000000
+   32   G01G02G03G04G05G06G07G08G09G10G11G12G13G14G15G16G17
+        G18G19G20G21G22G23G24G25G26G27G28G29G30G31G32  0  0
+          0  0  0  0  0  0  0  0  0  0  0  0  0  0  0  0  0
+          0  0  0  0  0  0  0  0  0  0  0  0  0  0  0  0  0
+          0  0  0  0  0  0  0  0  0  0  0  0  0  0  0  0  0
++         3  2  2  0  2  2  2  2  2  2  2  2  2  2  2  2  2
++         3  2  2  2  2  2  2  3  2  2  2  2  2  2  2  0  0
++         0  0  0  0  0  0  0  0  0  0  0  0  0  0  0  0  0
++         0  0  0  0  0  0  0  0  0  0  0  0  0  0  0  0  0
++         0  0  0  0  0  0  0  0  0  0  0  0  0  0  0  0  0
%c G  cc GPS ccc cccc cccc cccc cccc ccccc ccccc ccccc ccccc
%c cc cc ccc ccc cccc cccc cccc cccc ccccc ccccc ccccc ccccc
%f  1.2500000  1.025000000  0.00000000000  0.000000000000000
%f  0.0000000  0.000000000  0.00000000000  0.000000000000000
%i    0    0    0    0      0      0      0      0         0
%i    0    0    0    0      0      0      0      0         0
/* RAPID ORBIT COMBINATION FROM WEIGHTED AVERAGE OF:        
/* cod emr esa gfz jpl ngs sio usn whu                      
/* REFERENCED TO IGS TIME (IGST) AND TO WEIGHTED MEAN POLE: 
/* PCV:IGS14_2056 OL/AL:FES2004  NONE     Y  ORB:CMB CLK:CMB
*  2019  6 21  8 15  0.00000000
PG01 -22353.607573 -13828.953965   4689.114658    -46.664139  7  8  8  82       
PG02   9969.576080  19940.312222  15156.715929   -242.357365  9  8  6 105       
PG03 -13413.793486  -9147.695036  20995.912616    184.759500  6  4  4 107       
PG04 -23814.309074  11223.475130  -3495.655332 999999.999999
PG05   3319.525355  24800.531699  -8716.436779      0.450520  5  8  5 110       
PG06  -3981.928277  15283.263531  21389.363903    171.873500  8  6  5 103       
PG07 -20948.047811  -2304.395970 -16184.173281    -48.778244  2  6  5 102       
PG08 -15036.850349  -8699.982857 -20122.055031   -148.242943  4  9  8  98       
PG09 -25175.331088   7680.660029   3561.425884    387.226436  5  4  4  99       
PG10  11353.737121 -20681.086224 -11933.157871      9.307314  3  5  6  16       
PG11 -24033.272327  -9802.182966  -5472.862485   -579.568735  6  9  3 102       
PG12  11402.537631  12095.663412  20540.384876    231.162489  5  7  6  93       
PG13   5096.516045  14277.698379 -21918.664906    -58.086210  2  3  3  62       
PG14  10633.719663 -16540.134597  18093.632482    -75.098109  5  5  7 100       
PG15  16860.638576   7713.757276 -19411.970323   -305.733066  6  7  4  82       
PG16   -704.102503 -24629.163923  -9507.521419    -49.820864  7  7  6  69       
PG17 -18254.028787  14932.439302  12536.518950     75.371613  3  5  7  95       
PG18 -19268.308419 -17877.249008  -4764.441431     63.695067  4 11 10 122       
PG19 -12881.077946  15504.895567  17023.460506   -303.904196  6  5  5 100       
PG20  14146.854538 -12672.558578 -18608.550569    525.522906  3  3  6  90       
PG21  17849.657694  -3673.866382 -18475.120349   -169.131533  4  3  3  80       
PG22 -11896.213345 -16440.870609  17410.936979   -720.177574  4  7  2  89       
PG23 -22266.501655  -2388.981421  14920.160438   -180.797785  5  5  5 108       
PG24  22306.515852  14682.300300   1270.299205    -67.723564  6  7  6  99       
PG25  15198.663780  -2587.672467  21384.203341   -767.464669  7  7  7 118       
PG26   4221.109819 -26077.211302   1538.950986    232.287814  7  4  7  93       
PG27  -2348.065788 -14946.652546 -21913.488162   -163.647498  7  7  6  88       
PG28 -12651.720642  20088.935392 -11403.612780    767.298346  7  5  2  99       
PG29  25351.398656  -3154.845858   7254.002978    171.028649  5  5  6  88       
PG30 -14238.129537   7917.790524 -20981.514662   -128.027420  5  4  3  96       
PG31   3211.273977 -16208.507413  20694.984021     29.620484  5  5  4  99       
PG32  16795.728634 -16321.516351  12473.469012    -34.599272  3  7  4  86       
*  2019  6 21  8 30  0.00000000
PG01 -22555.721531 -14212.324797   1853.886236    -46.673034  8  8  8  60       
PG02   8419.756350  19130.740622  17082.462613   -242.365227  9  8  6 108       
PG03 -13069.874524 -11478.293498  20056.643133    184.758196  5  4  4  94       
PG04 -24132.328874  11071.965783   -655.513498 999999.999999
PG05   2966.856195  25609.180821  -6042.258450      0.450407  6  8  6 113       
PG06  -5989.656575  13854.614827  21892.516686    171.863815  8  5  4  78       
PG07 -22248.206158  -3509.218689 -14182.386824    -48.785457  4  6  6  93       
PG08 -12918.730094  -9733.653757 -21077.153517   -148.244710  4  9  8 114       
PG09 -24768.291700   7196.735171   6323.699977    387.219369  5  4  4 108       
PG10  11399.587602 -19154.045279 -14225.216212      9.296330  4  5  6  84       
PG11 -23245.079279 -10046.918230  -8089.853002   -579.560923  7  9  4  60       
PG12  10912.638514  14359.736076  19340.251591    231.159321  6  8  5  99       
PG13   2716.768279  14976.258151 -21871.959784    -58.084729  4  3  4  77       
PG14  12500.731784 -17014.864595  16326.366275    -75.096319  6  5  7  92       
PG15  14962.151901   8886.539581 -20418.559220   -305.731248  6  7  4  93       
PG16   -321.242642 -25488.408457  -6789.746913    -49.823907  7  6  5  76       
PG17 -19467.134902  15215.354557  10033.611245     75.377375  1  6  6 114       
PG18 -18597.788588 -17726.516552  -7486.203457     63.697878  5 10 10           
PG19 -14713.496422  15949.204559  15054.589371   -303.899886  5  4  5 104       
PG20  14319.704060 -10480.620555 -19821.653406    525.523357  3  3  5  69       
PG21  19576.044764  -2329.529505 -16931.414396   -169.124945  4  2  3  85       
PG22 -11613.807290 -18290.544718  15651.438592   -720.182911  5  7  2  69       
PG23 -20749.089734  -3280.775123  16822.978878   -180.796289  5  5  5  82       
PG24  22147.247172  14927.329425  -1521.413073    -67.724249  6  6  6 100       
PG25  14948.128151    -87.614912  21733.220410   -767.467383  6  6  7 108       
PG26   4484.268403 -25711.356902   4359.566263    232.296259  7  3  7  93       
PG27    -83.577488 -15884.998312 -21342.837655   -163.656757  6  6  6  79       
PG28 -12510.987031  18563.778542 -13765.361047    767.298098  7  6  3  99       
PG29  24482.511375  -2660.885070   9928.671523    171.019996  6  5  6  94       
PG30 -16031.263469   6373.597916 -20218.117495   -128.034066  5  4  3 109       
PG31   5163.372202 -14781.073858  21396.692449     29.618367  5  5  3 102       
PG32  18064.977701 -16627.835963  10035.267840    -34.584968  3  7  4  73       
*  2019  6 21  8 45  0.00000000
PG01 -22511.196610 -14406.050806  -1012.690035    -46.681953  8  8  8 103       
PG02   6660.581623  18306.946714  18728.178735   -242.373180  9  7  6  91       
PG03 -12855.713411 -13696.953994  18771.808253    184.756904  6  5  4  91       
PG04 -24166.053398  10800.382118   2195.914573 999999.999999
PG05   2662.467958  26125.815231  -3263.141104      0.450224  6  8  6 106       
PG06  -8102.040549  12518.519854  22020.304846    171.854091  8  5  3  92       
PG07 -23407.951226  -4507.418388 -11938.037097    -48.792419  5  7  6 106       
PG08 -10779.848340 -10921.444407 -21669.916450   -148.247201  4  8  7  84       
PG09 -24115.120831   6550.026579   8977.086177    387.212335  5  4  4 101       
PG10  11512.029195 -17385.343262 -16269.184623      9.285428  4  4  5  19       
PG11 -22189.006241 -10283.459311 -10568.032174   -579.553113  7  9  4  86       
PG12  10568.001284  16489.817065  17802.951575    231.155977  7  8  5  98       
PG13    401.907876  15792.289572 -21452.560689    -58.083303  4  4  5  63       
PG14  14145.817214 -17504.688241  14282.208946    -75.095065  6  5  6  87       
PG15  13041.311337  10199.992178 -21084.191967   -305.729004  7  6  4  81       
PG16    -27.742152 -26053.446347  -3952.726296    -49.826589  6  5  5  42       
PG17 -20398.797731  15445.659089   7360.122038     75.382968  1  6  7 104       
PG18 -17666.401624 -17458.687102 -10082.030333 999999.999999
PG19 -16292.112350  16406.806497  12822.198590   -303.895399  5  4  5 103       
PG20  14603.676342  -8184.115027 -20695.375587    525.523176  3  4  5  87       
PG21  21191.062241  -1171.942327 -15076.668735   -169.117010  5  3  4  82       
PG22 -11415.060532 -19941.261600  13627.629447   -720.187894  6  7  2  54       
PG23 -19105.513383  -4340.094687  18447.496088   -180.794800  5  4  5  94       
PG24  21732.064449  15022.567260  -4287.506761    -67.724624  6  6  6  96       
PG25  14829.311479   2437.903476  21700.497489   -767.470107  5  5  7 106       
PG26   4756.529760 -25043.244121   7104.300052    232.304665  6  2  6  76       
PG27   2053.008338 -16908.664658 -20406.825057   -163.665981  6  5  5  92       
PG28 -12419.451915  16773.069716 -15882.522797    767.297766  7  5  3  87       
PG29  23372.463060  -2002.420893  12432.314915    171.011569  6  5  6  76       
PG30 -17810.689060   4982.029154 -19107.518117   -128.040629  5  4  3  89       
PG31   7231.204406 -13425.422534  21728.289704     29.615914  5  5  2  91       
PG32  19063.523849 -16867.049867   7423.657375    -34.570662  3  8  2  80       
EOF
